{"type": "FeatureCollection", "features": [ {"type": "Feature", "properties": {"norad_id": 31843, "name": "FENGYUN 1C DEB", "group": "fengyun-1c-debris", "lat": -49.901351288446605, "lon": -65.74980181737943, "alt_km": 853.8586953477325, "timestamp": "2025-12-07T22:37:43.364347+00:00", "meta": {"OBJECT_NAME": "FENGYUN 1C DEB", "OBJECT_ID": "1999-025CJH", "EPOCH": "2025-12-02T15:01:05.389248", "MEAN_MOTION": 13.33462656, "ECCENTRICITY": 0.06419114, "INCLINATION": 99.2813, "RA_OF_ASC_NODE": 278.1993, "ARG_OF_PERICENTER": 18.9524, "MEAN_ANOMALY": 343.4355, "EPHEMERIS_TYPE": 0, "CLASSIFICATION_TYPE": "U", "NORAD_CAT_ID": 31843, "ELEMENT_SET_NO": 999, "REV_AT_EPOCH": 64561, "BSTAR": 0.0084044243, "MEAN_MOTION_DOT": 0.00013435, "MEAN_MOTION_DDOT": 0}, "tle": {"line1": "1 31843U 99025CJH 25336.62575682  .00013435  00000+0  84044-2 0  9991", "line2": "2 31843  99.2813 278.1993 0641911  18.9524 343.4355 13.33462656645611"}}, "geometry": {"type": "Point", "coordinates": [-65.74980181737943, -49.901351288446605]}}, {"type": "Feature", "properties": {"norad_id": 31844, "name": "FENGYUN 1C DEB", "group": "fengyun-1c-debris", "lat": 14.171169142567036, "lon": -32.80154180625691, "alt_km": 753.5347420666503, "timestamp": "2025-12-07T22:37:43.364357+00:00", "meta": {"OBJECT_NAME": "FENGYUN 1C DEB", "OBJECT_ID": "1999-025CJJ", "EPOCH": "2025-12-05T16:26:18.157632", "MEAN_MOTION": 14.19699269, "ECCENTRICITY": 0.01038989, "INCLINATION": 100.302, "RA_OF_ASC_NODE": 327.2073, "ARG_OF_PERICENTER": 10.2041, "MEAN_ANOMALY": 350.1206, "EPHEMERIS_TYPE": 0, "CLASSIFICATION_TYPE": "U", "NORAD_CAT_ID": 31844, "ELEMENT_SET_NO": 999, "REV_AT_EPOCH": 95232, "BSTAR": 0.001318582, "MEAN_MOTION_DOT": 2.887e-05, "MEAN_MOTION_DDOT": 0}, "tle": {"line1": "1 31844U 99025CJJ 25339.68493238  .00002887  00000+0  13186-2 0  9995", "line2": "2 31844 100.3020 327.2073 0103898  10.2041 350.1206 14.19699269952323"}}, "geometry": {"type": "Point", "coordinates": [-32.80154180625691, 14.171169142567036]}}, {"type": "Feature", "properties": {"norad_id": 31850, "name": "FENGYUN 1C DEB", "group": "fengyun-1c-debris", "lat": 81.16152685178703, "lon": -50.26212804243943, "alt_km": 410.996330038447, "timestamp": "2025-12-07T22:37:43.364368+00:00", "meta": {"OBJECT_NAME": "FENGYUN 1C DEB", "OBJECT_ID": "1999-025CJQ", "EPOCH": "2025-12-04T09:33:59.141088", "MEAN_MOTION": 15.30779528, "ECCENTRICITY": 0.00801285, "INCLINATION": 98.5747, "RA_OF_ASC_NODE": 21.663, "ARG_OF_PERICENTER": 118.0114, "MEAN_ANOMALY": 242.9259, "EPHEMERIS_TYPE": 0, "CLASSIFICATION_TYPE": "U", "NORAD_CAT_ID": 31850, "ELEMENT_SET_NO": 999, "REV_AT_EPOCH": 65701, "BSTAR": 0.0051142134, "MEAN_MOTION_DOT": 0.00171209, "MEAN_MOTION_DDOT": 0}, "tle": {"line1": "1 31850U 99025CJQ 25338.39860117  .00171209  00000+0  51142-2 0  9992", "line2": "2 31850  98.5747  21.6630 0080128 118.0114 242.9259 15.30779528657011"}}, "geometry": {"type": "Point", "coordinates": [-50.26212804243943, 81.16152685178703]}}, {"type": "Feature", "properties": {"norad_id": 31854, "name": "FENGYUN 1C DEB", "group": "fengyun-1c-debris", "lat": -70.6750830882547, "lon": 138.911203890285, "alt_km": 897.7532432180387, "timestamp": "2025-12-07T22:37:43.364378+00:00", "meta": {"OBJECT_NAME": "FENGYUN 1C DEB", "OBJECT_ID": "1999-025CJU", "EPOCH": "2025-12-07T06:01:47.762400", "MEAN_MOTION": 14.03063566, "ECCENTRICITY": 0.00721805, "INCLINATION": 98.847, "RA_OF_ASC_NODE": 344.6061, "ARG_OF_PERICENTER": 156.2315, "MEAN_ANOMALY": 204.2212, "EPHEMERIS_TYPE": 0, "CLASSIFICATION_TYPE": "U", "NORAD_CAT_ID": 31854, "ELEMENT_SET_NO": 999, "REV_AT_EPOCH": 69195, "BSTAR": 0.00051355565, "MEAN_MOTION_DOT": 7.74e-06, "MEAN_MOTION_DDOT": 0}, "tle": {"line1": "1 31854U 99025CJU 25341.25124725  .00000774  00000+0  51356-3 0  9999", "line2": "2 31854  98.8470 344.6061 0072180 156.2315 204.2212 14.03063566691951"}}, "geometry": {"type": "Point", "coordinates": [138.911203890285, -70.6750830882547]}}, {"type": "Feature", "properties": {"norad_id": 31857, "name": "FENGYUN 1C DEB", "group": "fengyun-1c-debris", "lat": 9.717895005931076, "lon": 12.191744721427678, "alt_km": 962.0689356125058, "timestamp": "2025-12-07T22:37:43.364388+00:00", "meta": {"OBJECT_NAME": "FENGYUN 1C DEB", "OBJECT_ID": "1999-025CJX", "EPOCH": "2025-12-01T20:13:56.835552", "MEAN_MOTION": 13.61858254, "ECCENTRICITY": 0.03084927, "INCLINATION": 96.1896, "RA_OF_ASC_NODE": 9.3724, "ARG_OF_PERICENTER": 312.5702, "MEAN_ANOMALY": 44.9786, "EPHEMERIS_TYPE": 0, "CLASSIFICATION_TYPE": "U", "NORAD_CAT_ID": 31857, "ELEMENT_SET_NO": 999, "REV_AT_EPOCH": 61481, "BSTAR": 0.0021184073, "MEAN_MOTION_DOT": 2.215e-05, "MEAN_MOTION_DDOT": 0}, "tle": {"line1": "1 31857U 99025CJX 25335.84301893  .00002215  00000+0  21184-2 0  9990", "line2": "2 31857  96.1896   9.3724 0308492 312.5702  44.9786 13.61858254614817"}}, "geometry": {"type": "Point", "coordinates": [12.191744721427678, 9.717895005931076]}}, {"type": "Feature", "properties": {"norad_id": 31861, "name": "FENGYUN 1C DEB", "group": "fengyun-1c-debris", "lat": 28.69112676886044, "lon": 0.49466970927229265, "alt_km": 971.2453760400813, "timestamp": "2025-12-07T22:37:43.364399+00:00", "meta": {"OBJECT_NAME": "FENGYUN 1C DEB", "OBJECT_ID": "1999-025CKB", "EPOCH": "2025-11-30T18:20:57.621120", "MEAN_MOTION": 13.30200627, "ECCENTRICITY": 0.04966148, "INCLINATION": 102.3423, "RA_OF_ASC_NODE": 165.0071, "ARG_OF_PERICENTER": 230.9853, "MEAN_ANOMALY": 124.6046, "EPHEMERIS_TYPE": 0, "CLASSIFICATION_TYPE": "U", "NORAD_CAT_ID": 31861, "ELEMENT_SET_NO": 999, "REV_AT_EPOCH": 66608, "BSTAR": 0.0034105388, "MEAN_MOTION_DOT": 3.105e-05, "MEAN_MOTION_DDOT": 0}, "tle": {"line1": "1 31861U 99025CKB 25334.76455580  .00003105  00000+0  34105-2 0  9994", "line2": "2 31861 102.3423 165.0071 0496614 230.9853 124.6046 13.30200627666089"}}, "geometry": {"type": "Point", "coordinates": [0.49466970927229265, 28.69112676886044]}}, {"type": "Feature", "properties": {"norad_id": 31877, "name": "FENGYUN 1C DEB", "group": "fengyun-1c-debris", "lat": -79.73216755769202, "lon": 170.33311225869213, "alt_km": 506.9779114925468, "timestamp": "2025-12-07T22:37:43.364410+00:00", "meta": {"OBJECT_NAME": "FENGYUN 1C DEB", "OBJECT_ID": "1999-025CKC", "EPOCH": "2025-12-07T03:50:57.515424", "MEAN_MOTION": 15.0131473, "ECCENTRICITY": 0.01042299, "INCLINATION": 99.003, "RA_OF_ASC_NODE": 50.4979, "ARG_OF_PERICENTER": 297.1709, "MEAN_ANOMALY": 61.8915, "EPHEMERIS_TYPE": 0, "CLASSIFICATION_TYPE": "U", "NORAD_CAT_ID": 31877, "ELEMENT_SET_NO": 999, "REV_AT_EPOCH": 98958, "BSTAR": 0.0012754057, "MEAN_MOTION_DOT": 0.00018395, "MEAN_MOTION_DDOT": 0}, "tle": {"line1": "1 31877U 99025CKC 25341.16038791  .00018395  00000+0  12754-2 0  9997", "line2": "2 31877  99.0030  50.4979 0104229 297.1709  61.8915 15.01314730989580"}}, "geometry": {"type": "Point", "coordinates": [170.33311225869213, -79.73216755769202]}}, {"type": "Feature", "properties": {"norad_id": 31878, "name": "FENGYUN 1C DEB", "group": "fengyun-1c-debris", "lat": 35.234965062980464, "lon": -102.14477673303064, "alt_km": 655.1382023118904, "timestamp": "2025-12-07T22:37:43.364420+00:00", "meta": {"OBJECT_NAME": "FENGYUN 1C DEB", "OBJECT_ID": "1999-025CKD", "EPOCH": "2025-12-03T00:27:41.548032", "MEAN_MOTION": 14.85464766, "ECCENTRICITY": 0.00842743, "INCLINATION": 99.4399, "RA_OF_ASC_NODE": 258.7733, "ARG_OF_PERICENTER": 269.6043, "MEAN_ANOMALY": 89.551, "EPHEMERIS_TYPE": 0, "CLASSIFICATION_TYPE": "U", "NORAD_CAT_ID": 31878, "ELEMENT_SET_NO": 999, "REV_AT_EPOCH": 97949, "BSTAR": 0.0019397439, "MEAN_MOTION_DOT": 0.000178, "MEAN_MOTION_DDOT": 0}, "tle": {"line1": "1 31878U 99025CKD 25337.01923088  .00017800  00000+0  19397-2 0  9999", "line2": "2 31878  99.4399 258.7733 0084274 269.6043  89.5510 14.85464766979499"}}, "geometry": {"type": "Point", "coordinates": [-102.14477673303064, 35.234965062980464]}}, {"type": "Feature", "properties": {"norad_id": 31879, "name": "FENGYUN 1C DEB", "group": "fengyun-1c-debris", "lat": -22.389978533577217, "lon": 35.70105013014473, "alt_km": 885.7754711189682, "timestamp": "2025-12-07T22:37:43.364431+00:00", "meta": {"OBJECT_NAME": "FENGYUN 1C DEB", "OBJECT_ID": "1999-025CKE", "EPOCH": "2025-12-06T12:25:17.423328", "MEAN_MOTION": 14.42878712, "ECCENTRICITY": 0.02100051, "INCLINATION": 99.708, "RA_OF_ASC_NODE": 218.1225, "ARG_OF_PERICENTER": 54.7428, "MEAN_ANOMALY": 307.3211, "EPHEMERIS_TYPE": 0, "CLASSIFICATION_TYPE": "U", "NORAD_CAT_ID": 31879, "ELEMENT_SET_NO": 999, "REV_AT_EPOCH": 63120, "BSTAR": 0.00055530099, "MEAN_MOTION_DOT": 2.356e-05, "MEAN_MOTION_DDOT": 0}, "tle": {"line1": "1 31879U 99025CKE 25340.51756277  .00002356  00000+0  55530-3 0  9993", "line2": "2 31879  99.7080 218.1225 0210005  54.7428 307.3211 14.42878712631205"}}, "geometry": {"type": "Point", "coordinates": [35.70105013014473, -22.389978533577217]}}, {"type": "Feature", "properties": {"norad_id": 31880, "name": "FENGYUN 1C DEB", "group": "fengyun-1c-debris", "lat": -42.43077280584374, "lon": 153.6921915454351, "alt_km": 1020.3823933751701, "timestamp": "2025-12-07T22:37:43.364441+00:00", "meta": {"OBJECT_NAME": "FENGYUN 1C DEB", "OBJECT_ID": "1999-025CKF", "EPOCH": "2025-11-25T04:55:41.522880", "MEAN_MOTION": 13.89366235, "ECCENTRICITY": 0.01285165, "INCLINATION": 100.0297, "RA_OF_ASC_NODE": 130.6763, "ARG_OF_PERICENTER": 197.7169, "MEAN_ANOMALY": 161.9484, "EPHEMERIS_TYPE": 0, "CLASSIFICATION_TYPE": "U", "NORAD_CAT_ID": 31880, "ELEMENT_SET_NO": 999, "REV_AT_EPOCH": 62736, "BSTAR": 0.0005535194, "MEAN_MOTION_DOT": 6.7e-06, "MEAN_MOTION_DDOT": 0}, "tle": {"line1": "1 31880U 99025CKF 25329.20534170  .00000670  00000+0  55352-3 0  9993", "line2": "2 31880 100.0297 130.6763 0128516 197.7169 161.9484 13.89366235627363"}}, "geometry": {"type": "Point", "coordinates": [153.6921915454351, -42.43077280584374]}}]}